NORAD_CAT_ID,OBJECT_NAME,OBJECT_TYPE,EPOCH,MEAN_MOTION,ECCENTRICITY,INCLINATION,RA_OF_ASC_NODE,ARG_OF_PERICENTER,MEAN_ANOMALY,BSTAR,MEAN_MOTION_DOT,MEAN_MOTION_DDOT,TLE_LINE0,TLE_LINE1,TLE_LINE2,SEMIMAJOR_AXIS,PERIOD,APOGEE,PERIGEE,DECAYED
54790.0,TBA - TO BE ASSIGNED,UNKNOWN,2022-12-27 18:00:00,15.78265728,0.0006505,53.2177,256.9762,269.8859,21.3345,-0.0077117999999999,-0.01204213,0.0,0 TBA - TO BE ASSIGNED,1 54790U 22175AJ  22361.75001157 -.01204213  00000-0 -77118-2 0  9993,2 54790  53.2177 256.9762 0006505 269.8859  21.3345 15.78265728  1305,6713.491,91.239,339.723,330.9890000000001,
54790.0,TBA - TO BE ASSIGNED,UNKNOWN,2022-12-27 22:00:00,15.77851911,0.0001529,53.2172,256.147,6.9475,151.6311,-0.0080731999999999,-0.01229729,0.0,0 TBA - TO BE ASSIGNED,1 54790U 22175AJ  22361.91667824 -.01229729  00000-0 -80732-2 0  9995,2 54790  53.2172 256.1470 0001529   6.9475 151.6311 15.77851911  1329,6714.665,91.263,337.557,335.5030000000001,
54790.0,STARLINK-5445,PAYLOAD,2022-12-28 14:00:01,15.76089338,0.0001568,53.2172,252.828,26.6157,318.8411,-0.0084432,-0.01192973,0.0,0 STARLINK-5445,1 54790U 22175AJ  22362.58334491 -.01192973  00000-0 -84432-2 0  9991,2 54790  53.2172 252.8280 0001568  26.6157 318.8411 15.76089338  1301,6719.67,91.365,342.589,340.481,0.0
54790.0,STARLINK-5445,PAYLOAD,2022-12-28 22:00:00,15.75217651,0.0001537,53.2173,251.174,36.5835,40.7418,-0.0087248999999999,-0.0118684,0.0,0 STARLINK-5445,1 54790U 22175AJ  22362.91667824 -.01186840  00000-0 -87249-2 0  9992,2 54790  53.2173 251.1740 0001537  36.5835  40.7418 15.75217651  1481,6722.149,91.416,345.047,342.981,0.0
54790.0,STARLINK-5445,PAYLOAD,2022-12-29 14:00:01,15.73417845,0.0001726,53.2173,247.8675,41.4309,216.5153,-0.0022855,-0.0031268,0.0,0 STARLINK-5445,1 54790U 22175AJ  22363.58334491 -.00312680  00000-0 -22855-2 0  9991,2 54790  53.2173 247.8675 0001726  41.4309 216.5153 15.73417845  1586,6727.274,91.521,350.3,347.978,0.0
54790.0,STARLINK-5445,PAYLOAD,2022-12-29 22:00:00,15.729860999999998,0.0001914,53.2169,246.22,54.3119,292.9068,0.0011440999999999,0.00161587,0.0,0 STARLINK-5445,1 54790U 22175AJ  22363.91667824  .00161587  00000-0  11441-2 0  9992,2 54790  53.2169 246.2200 0001914  54.3119 292.9068 15.72986100  1643,6728.505,91.546,351.658,349.082,0.0
54790.0,STARLINK-5445,PAYLOAD,2022-12-30 06:00:00,15.73185258,0.0001789,53.215,244.5736,34.7409,41.3435,0.00042147,0.0005891,0.0,0 STARLINK-5445,1 54790U 22175AJ  22364.25001157  .00058910  00000-0  42147-3 0  9994,2 54790  53.2150 244.5736 0001789  34.7409  41.3435 15.73185258  1697,6727.937,91.534,351.006,348.599,0.0
54790.0,STARLINK-5445,PAYLOAD,2022-12-30 14:00:01,15.73222559,0.0001473,53.2153,242.9222,36.3592,128.664,6.9488e-05,9.152e-05,0.0,0 STARLINK-5445,1 54790U 22175AJ  22364.58334491  .00009152  00000-0  69488-4 0  9992,2 54790  53.2153 242.9222 0001473  36.3592 128.6640 15.73222559  1304,6727.831,91.532,350.68699999999984,348.705,0.0
54790.0,STARLINK-5445,PAYLOAD,2022-12-30 22:00:00,15.73265641,0.0001565999999999,53.2155,241.2744,28.6493,225.3364,-0.00034121,-0.00048368,0.0,0 STARLINK-5445,1 54790U 22175AJ  22364.91667824 -.00048368  00000-0 -34121-3 0  9997,2 54790  53.2155 241.2744 0001566  28.6493 225.3364 15.73265641  1794,6727.708000000001,91.529,350.62699999999984,348.519,0.0
54790.0,STARLINK-5445,PAYLOAD,2022-12-31 06:00:00,15.73146395,0.0001715,53.2154,239.6248,33.72,309.2059,-5.0958e-06,-1.334e-05,0.0,0 STARLINK-5445,1 54790U 22175AJ  22365.25001157 -.00001334  00000-0 -50958-5 0  9996,2 54790  53.2154 239.6248 0001715  33.7200 309.2059 15.73146395  1856,6728.0480000000025,91.536,351.06699999999995,348.759,0.0
54790.0,STARLINK-5445,PAYLOAD,2022-12-31 14:00:01,15.73130798,0.0001465,53.2154,237.9738,36.9747,34.8053,0.00076062,0.00107181,0.0,0 STARLINK-5445,1 54790U 22175AJ  22365.58334491  .00107181  00000-0  76062-3 0  9999,2 54790  53.2154 237.9738 0001465  36.9747  34.8053 15.73130798  1309,6728.092,91.537,350.9430000000001,348.972,0.0
54790.0,STARLINK-5445,PAYLOAD,2022-12-31 22:00:00,15.73187911,0.0001605,53.2152,236.3263,29.5927,131.0717,-0.00018897,-0.00027043,0.0,0 STARLINK-5445,1 54790U 22175AJ  22365.91667824 -.00027043  00000-0 -18897-3 0  9997,2 54790  53.2152 236.3263 0001605  29.5927 131.0717 15.73187911  1303,6727.93,91.534,350.874,348.715,0.0
54790.0,STARLINK-5445,PAYLOAD,2023-01-01 14:00:01,15.73137545,0.0001474,53.2152,233.0256,37.527,300.9149,0.00074553,0.00105046,0.0,0 STARLINK-5445,1 54790U 22175AJ  23001.58334491  .00105046  00000-0  74553-3 0  9998,2 54790  53.2152 233.0256 0001474  37.5270 300.9149 15.73137545  1307,6728.073,91.537,350.93,348.94699999999995,0.0
54790.0,STARLINK-5445,PAYLOAD,2023-01-01 22:00:00,15.73245507,0.0001635,53.2152,231.3783,30.9855,36.3548,-0.00043327,-0.00061107,0.0,0 STARLINK-5445,1 54790U 22175AJ  23001.91667824 -.00061107  00000-0 -43327-3 0  9990,2 54790  53.2152 231.3783 0001635  30.9855  36.3548 15.73245507  2119,6727.765,91.531,350.73,348.53,0.0
54790.0,STARLINK-5445,PAYLOAD,2023-01-02 00:00:00,15.73220259,0.000168,53.2155,230.9662,28.9263,150.6608,-0.00011276,-0.00016429,0.0,0 STARLINK-5445,1 54790U 22175AJ  23002.00001157 -.00016429  00000-0 -11276-3 0  9997,2 54790  53.2155 230.9662 0001680  28.9263 150.6608 15.73220259  1307,6727.837,91.532,350.833,348.57199999999995,0.0
54790.0,STARLINK-5445,PAYLOAD,2023-01-02 02:17:22,15.73229095,0.0001601,53.2155,230.4924,37.5664,322.5468,0.00052621,0.00073976,0.0,0 STARLINK-5445,1 54790U 22175AJ  23002.09539700  .00073976  00000-0  52621-3 0  9993,2 54790  53.2155 230.4924 0001601  37.5664 322.5468 15.73229095  2141,6727.812,91.531,350.754,348.6,0.0
54790.0,STARLINK-5445,PAYLOAD,2023-01-02 11:26:15,15.73220185,0.0001455,53.2154,228.607,26.0778,334.0315,0.00029187,0.00040575,0.0,0 STARLINK-5445,1 54790U 22175AJ  23002.47656259  .00040575  00000-0  29187-3 0  9994,2 54790  53.2154 228.6070 0001455  26.0778 334.0315 15.73220185  2204,6727.8380000000025,91.532,350.682,348.724,0.0
54790.0,STARLINK-5445,PAYLOAD,2023-01-02 14:29:12,15.73192944,0.0001465999999999,53.2154,227.9776,53.3613,306.7542,-9.084e-05,-0.00013345,0.0,0 STARLINK-5445,1 54790U 22175AJ  23002.60362068 -.00013345  00000-0 -90840-4 0  9993,2 54790  53.2154 227.9776 0001466  53.3613 306.7542 15.73192944  4382,6727.915,91.534,350.767,348.7940000000001,0.0
54790.0,STARLINK-5445,PAYLOAD,2023-01-02 17:32:10,15.73201957,0.0001541,53.2152,227.3493,37.9609,322.152,4.3585e-05,5.501e-05,0.0,0 STARLINK-5445,1 54790U 22175AJ  23002.73067787  .00005501  00000-0  43585-4 0  9994,2 54790  53.2152 227.3493 0001541  37.9609 322.1520 15.73201957  2243,6727.89,91.533,350.791,348.718,0.0
54790.0,STARLINK-5445,PAYLOAD,2023-01-02 22:06:42,15.72800531,0.0001069,53.2152,226.4068,13.2488,346.856,-0.0020434,-0.00273543,0.0,0 STARLINK-5445,1 54790U 22175AJ  23002.92133062 -.00273543  00000-0 -20434-2 0  9996,2 54790  53.2152 226.4068 0001069  13.2488 346.8560 15.72800531  4430,6729.034000000002,91.556,351.619,350.18,0.0
54790.0,STARLINK-5445,PAYLOAD,2023-01-02 23:38:20,15.72364876,0.0001730999999999,53.2153,226.0931,52.9117,307.206,-0.0039806,-0.00508332,0.0,0 STARLINK-5445,1 54790U 22175AJ  23002.98495417 -.00508332  00000-0 -39806-2 0  9997,2 54790  53.2153 226.0931 0001731  52.9117 307.2060 15.72364876  2285,6730.276999999999,91.582,353.307,350.977,0.0
54790.0,STARLINK-5445,PAYLOAD,2023-01-03 14:00:01,15.73168114,0.0001467,53.2145,223.1291,34.7394,117.2746,0.0004339,0.00060633,0.0,0 STARLINK-5445,1 54790U 22175AJ  23003.58334491  .00060633  00000-0  43390-3 0  9997,2 54790  53.2145 223.1291 0001467  34.7394 117.2746 15.73168114  1304,6727.986,91.535,350.838,348.86400000000015,0.0
54790.0,STARLINK-5445,PAYLOAD,2023-01-04 07:39:10,15.7321869,0.0001730999999999,53.2144,219.4898,38.631,321.4834,0.00014743,0.00020137,0.0,0 STARLINK-5445,1 54790U 22175AJ  23004.31887575  .00020137  00000-0  14743-3 0  9990,2 54790  53.2144 219.4898 0001731  38.6310 321.4834 15.73218690  2492,6727.842,91.532,350.871,348.542,0.0
54790.0,STARLINK-5445,PAYLOAD,2023-01-05 03:28:22,15.73287555,0.0001761999999999,53.2141,215.4032,28.938,331.1737,0.00016364,0.00022493,0.0,0 STARLINK-5445,1 54790U 22175AJ  23005.14470421  .00022493  00000-0  16364-3 0  9998,2 54790  53.2141 215.4032 0001762  28.9380 331.1737 15.73287555  2629,6727.646,91.528,350.696,348.325,0.0
54790.0,STARLINK-5445,PAYLOAD,2023-01-05 14:08:42,15.7326217,0.0001515,53.2135,213.2017,37.6086,322.504,-0.00013773,-0.00019956,0.0,0 STARLINK-5445,1 54790U 22175AJ  23005.58937877 -.00019956  00000-0 -13773-3 0  9992,2 54790  53.2135 213.2017 0001515  37.6086 322.5040 15.73262170  4851,6727.718000000003,91.53,350.602,348.564,0.0
54790.0,STARLINK-5445,PAYLOAD,2023-01-05 18:43:08,15.73231003,0.0002133999999999,53.2128,212.2596,16.1744,343.9344,-0.00018076,-0.00025948,0.0,0 STARLINK-5445,1 54790U 22175AJ  23005.77996300 -.00025948  00000-0 -18076-3 0  9998,2 54790  53.2128 212.2596 0002134  16.1744 343.9344 15.73231003  4883,6727.807,91.531,351.107,348.236,0.0
54790.0,STARLINK-5445,PAYLOAD,2023-01-06 02:20:32,15.73222818,0.0001852,53.2135,210.6872,32.709,327.4045,-9.2408e-06,-1.919e-05,0.0,0 STARLINK-5445,1 54790U 22175AJ  23006.09760009 -.00001919  00000-0 -92408-5 0  9994,2 54790  53.2135 210.6872 0001852  32.7090 327.4045 15.73222818  2779,6727.83,91.532,350.941,348.449,0.0
54790.0,STARLINK-5445,PAYLOAD,2023-01-06 06:54:50,15.73705478,0.0002783,53.2133,209.7441,353.2344,6.8638,0.0025973,0.00389665,0.0,0 STARLINK-5445,1 54790U 22175AJ  23006.28809010  .00389665  00000-0  25973-2 0  9996,2 54790  53.2133 209.7441 0002783 353.2344   6.8638 15.73705478  2803,6726.4540000000015,91.504,350.191,346.44699999999995,0.0
54790.0,STARLINK-5445,PAYLOAD,2023-01-06 22:00:00,15.73212772,0.0001896,53.213,206.6359,20.1106,301.3973,-0.00026886,-0.00038206,0.0,0 STARLINK-5445,1 54790U 22175AJ  23006.91667824 -.00038206  00000-0 -26886-3 0  9990,2 54790  53.2130 206.6359 0001896  20.1106 301.3973 15.73212772  2900,6727.859,91.532,350.999,348.4480000000001,0.0
